[
    {
        "Altitude(m)": 704091.0815169119,
        "Argument of Periapsis(deg)": 0.010251109067964361,
        "Eccentricity": 0.0,
        "Inclination(deg)": 45.0,
        "Latitude(deg)": -4.304842440153781,
        "Longitude(deg)": 95.01268646463957,
        "Mean Anomaly(deg)": -5.98370501726726,
        "RAAN(deg)": 199.99032325268763,
        "Satellite Name": "Constellation 1 901",
        "Satellite Number": 901,
        "Semi-Major Axis(m)": 7083131.272910544,
        "Time(s)": 171
    },
    {
        "Altitude(m)": 704083.4726757575,
        "Argument of Periapsis(deg)": 0.010311057074209765,
        "Eccentricity": 0.0,
        "Inclination(deg)": 45.0,
        "Latitude(deg)": -4.261756502382454,
        "Longitude(deg)": 95.05166673208761,
        "Mean Anomaly(deg)": -5.9230038770174,
        "RAAN(deg)": 199.99026666352205,
        "Satellite Name": "Constellation 1 901",
        "Satellite Number": 901,
        "Semi-Major Axis(m)": 7083131.272910544,
        "Time(s)": 172
    },
    {
        "Altitude(m)": 704075.8834051514,
        "Argument of Periapsis(deg)": 0.010371005080455171,
        "Eccentricity": 0.0,
        "Inclination(deg)": 45.0,
        "Latitude(deg)": -4.2186680211018315,
        "Longitude(deg)": 95.0906422843606,
        "Mean Anomaly(deg)": -5.862302736767538,
        "RAAN(deg)": 199.9902100743565,
        "Satellite Name": "Constellation 1 901",
        "Satellite Number": 901,
        "Semi-Major Axis(m)": 7083131.272910544,
        "Time(s)": 173
    },
    {
        "Altitude(m)": 704068.3137205793,
        "Argument of Periapsis(deg)": 0.010430953086700577,
        "Eccentricity": 0.0,
        "Inclination(deg)": 45.0,
        "Latitude(deg)": -4.17557702165599,
        "Longitude(deg)": 95.12961317023814,
        "Mean Anomaly(deg)": -5.801601596517575,
        "RAAN(deg)": 199.9901534851909,
        "Satellite Name": "Constellation 1 901",
        "Satellite Number": 901,
        "Semi-Major Axis(m)": 7083131.272910544,
        "Time(s)": 174
    },
    {
        "Altitude(m)": 704060.7636374403,
        "Argument of Periapsis(deg)": 0.010490901092945983,
        "Eccentricity": 0.0,
        "Inclination(deg)": 45.0,
        "Latitude(deg)": -4.1324835293806155,
        "Longitude(deg)": 95.16857943848957,
        "Mean Anomaly(deg)": -5.740900456267715,
        "RAAN(deg)": 199.99009689602534,
        "Satellite Name": "Constellation 1 901",
        "Satellite Number": 901,
        "Semi-Major Axis(m)": 7083131.272910544,
        "Time(s)": 175
    },
    {
        "Altitude(m)": 704053.2331710465,
        "Argument of Periapsis(deg)": 0.010550849099191389,
        "Eccentricity": 0.0,
        "Inclination(deg)": 45.0,
        "Latitude(deg)": -4.089387569602643,
        "Longitude(deg)": 95.2075411378744,
        "Mean Anomaly(deg)": -5.680199316017751,
        "RAAN(deg)": 199.99004030685975,
        "Satellite Name": "Constellation 1 901",
        "Satellite Number": 901,
        "Semi-Major Axis(m)": 7083131.272910544,
        "Time(s)": 176
    },
    {
        "Altitude(m)": 704045.7223366149,
        "Argument of Periapsis(deg)": 0.010610797105436795,
        "Eccentricity": 0.0,
        "Inclination(deg)": 45.0,
        "Latitude(deg)": -4.046289167640836,
        "Longitude(deg)": 95.24649831714214,
        "Mean Anomaly(deg)": -5.619498175767916,
        "RAAN(deg)": 199.9899837176942,
        "Satellite Name": "Constellation 1 901",
        "Satellite Number": 901,
        "Semi-Major Axis(m)": 7083131.272910544,
        "Time(s)": 177
    },
    {
        "Altitude(m)": 704038.2311492742,
        "Argument of Periapsis(deg)": 0.0106707451116822,
        "Eccentricity": 0.0,
        "Inclination(deg)": 45.0,
        "Latitude(deg)": -4.003188348805341,
        "Longitude(deg)": 95.28545085693582,
        "Mean Anomaly(deg)": -5.5587970355179275,
        "RAAN(deg)": 199.98992712852865,
        "Satellite Name": "Constellation 1 901",
        "Satellite Number": 901,
        "Semi-Major Axis(m)": 7083131.272910544,
        "Time(s)": 178
    },
    {
        "Altitude(m)": 704030.7596240574,
        "Argument of Periapsis(deg)": 0.010730693117927606,
        "Eccentricity": 0.0,
        "Inclination(deg)": 45.0,
        "Latitude(deg)": -3.960085138398474,
        "Longitude(deg)": 95.32439914217942,
        "Mean Anomaly(deg)": -5.498095895268193,
        "RAAN(deg)": 199.98987053936304,
        "Satellite Name": "Constellation 1 901",
        "Satellite Number": 901,
        "Semi-Major Axis(m)": 7083131.272910544,
        "Time(s)": 179
    },
    {
        "Altitude(m)": 704023.3077759098,
        "Argument of Periapsis(deg)": 0.01079064112417301,
        "Eccentricity": 0.0,
        "Inclination(deg)": 45.0,
        "Latitude(deg)": -3.9169795617138514,
        "Longitude(deg)": 95.36334305349688,
        "Mean Anomaly(deg)": -5.437394755018206,
        "RAAN(deg)": 199.9898139501975,
        "Satellite Name": "Constellation 1 901",
        "Satellite Number": 901,
        "Semi-Major Axis(m)": 7083131.272910544,
        "Time(s)": 180
    },
    {
        "Altitude(m)": 704015.8756196932,
        "Argument of Periapsis(deg)": 0.010850589130418416,
        "Eccentricity": 0.0,
        "Inclination(deg)": 45.0,
        "Latitude(deg)": -3.873871644037536,
        "Longitude(deg)": 95.40228263959938,
        "Mean Anomaly(deg)": -5.376693614768268,
        "RAAN(deg)": 199.9897573610319,
        "Satellite Name": "Constellation 1 901",
        "Satellite Number": 901,
        "Semi-Major Axis(m)": 7083131.272910544,
        "Time(s)": 181
    },
    {
        "Altitude(m)": 704008.4631701637,
        "Argument of Periapsis(deg)": 0.01091053713666382,
        "Eccentricity": 0.0,
        "Inclination(deg)": 45.0,
        "Latitude(deg)": -3.8307614106475145,
        "Longitude(deg)": 95.44121794918868,
        "Mean Anomaly(deg)": -5.315992474518406,
        "RAAN(deg)": 199.98970077186635,
        "Satellite Name": "Constellation 1 901",
        "Satellite Number": 901,
        "Semi-Major Axis(m)": 7083131.272910544,
        "Time(s)": 182
    },
    {
        "Altitude(m)": 704001.0704419909,
        "Argument of Periapsis(deg)": 0.010970485142909228,
        "Eccentricity": 0.0,
        "Inclination(deg)": 45.0,
        "Latitude(deg)": -3.7876488868137588,
        "Longitude(deg)": 95.48014903095756,
        "Mean Anomaly(deg)": -5.25529133426852,
        "RAAN(deg)": 199.98964418270077,
        "Satellite Name": "Constellation 1 901",
        "Satellite Number": 901,
        "Semi-Major Axis(m)": 7083131.272910544,
        "Time(s)": 183
    },
    {
        "Altitude(m)": 703993.6974497671,
        "Argument of Periapsis(deg)": 0.011030433149154634,
        "Eccentricity": 0.0,
        "Inclination(deg)": 45.0,
        "Latitude(deg)": -3.74453409779853,
        "Longitude(deg)": 95.51907593358962,
        "Mean Anomaly(deg)": -5.194590194018583,
        "RAAN(deg)": 199.9895875935352,
        "Satellite Name": "Constellation 1 901",
        "Satellite Number": 901,
        "Semi-Major Axis(m)": 7083131.272910544,
        "Time(s)": 184
    },
    {
        "Altitude(m)": 703986.3442079696,
        "Argument of Periapsis(deg)": 0.01109038115540004,
        "Eccentricity": 0.0,
        "Inclination(deg)": 45.0,
        "Latitude(deg)": -3.7014170688565033,
        "Longitude(deg)": 95.55799853766227,
        "Mean Anomaly(deg)": -5.133889053768621,
        "RAAN(deg)": 199.98953100436964,
        "Satellite Name": "Constellation 1 901",
        "Satellite Number": 901,
        "Semi-Major Axis(m)": 7083131.272910544,
        "Time(s)": 185
    },
    {
        "Altitude(m)": 703979.0107310009,
        "Argument of Periapsis(deg)": 0.011150329161645444,
        "Eccentricity": 0.0,
        "Inclination(deg)": 45.0,
        "Latitude(deg)": -3.658297825234819,
        "Longitude(deg)": 95.59691722803512,
        "Mean Anomaly(deg)": -5.073187913518861,
        "RAAN(deg)": 199.98947441520406,
        "Satellite Name": "Constellation 1 901",
        "Satellite Number": 901,
        "Semi-Major Axis(m)": 7083131.272910544,
        "Time(s)": 186
    },
    {
        "Altitude(m)": 703971.6970331714,
        "Argument of Periapsis(deg)": 0.01121027716789085,
        "Eccentricity": 0.0,
        "Inclination(deg)": 45.0,
        "Latitude(deg)": -3.6151763921727644,
        "Longitude(deg)": 95.63583188526822,
        "Mean Anomaly(deg)": -5.012486773268898,
        "RAAN(deg)": 199.9894178260385,
        "Satellite Name": "Constellation 1 901",
        "Satellite Number": 901,
        "Semi-Major Axis(m)": 7083131.272910544,
        "Time(s)": 187
    },
    {
        "Altitude(m)": 703964.4031286966,
        "Argument of Periapsis(deg)": 0.011270225174136258,
        "Eccentricity": 0.0,
        "Inclination(deg)": 45.0,
        "Latitude(deg)": -3.572052794902575,
        "Longitude(deg)": 95.67474255800951,
        "Mean Anomaly(deg)": -4.951785633018936,
        "RAAN(deg)": 199.98936123687292,
        "Satellite Name": "Constellation 1 901",
        "Satellite Number": 901,
        "Semi-Major Axis(m)": 7083131.272910544,
        "Time(s)": 188
    },
    {
        "Altitude(m)": 703957.1290316976,
        "Argument of Periapsis(deg)": 0.011330173180381662,
        "Eccentricity": 0.0,
        "Inclination(deg)": 45.0,
        "Latitude(deg)": -3.5289270586491774,
        "Longitude(deg)": 95.71364929489849,
        "Mean Anomaly(deg)": -4.891084492769075,
        "RAAN(deg)": 199.98930464770737,
        "Satellite Name": "Constellation 1 901",
        "Satellite Number": 901,
        "Semi-Major Axis(m)": 7083131.272910544,
        "Time(s)": 189
    }
]